[{"OBJECT_NAME":"PUNCH-WFI 1 (SMEX 15B)","OBJECT_ID":"2025-047B","EPOCH":"2026-03-09T11:45:25.991424","MEAN_MOTION":14.74225366,"ECCENTRICITY":0.0009999,"INCLINATION":97.9576,"RA_OF_ASC_NODE":255.6057,"ARG_OF_PERICENTER":132.8335,"MEAN_ANOMALY":227.3715,"EPHEMERIS_TYPE":0,"CLASSIFICATION_TYPE":"U","NORAD_CAT_ID":63179,"ELEMENT_SET_NO":999,"REV_AT_EPOCH":5337,"BSTAR":0.00015602986,"MEAN_MOTION_DOT":9.82e-6,"MEAN_MOTION_DDOT":0},{"OBJECT_NAME":"IRIDIUM 33 DEB","OBJECT_ID":"1997-051MY","EPOCH":"2026-03-09T08:53:47.178816","MEAN_MOTION":14.67283018,"ECCENTRICITY":0.00238001,"INCLINATION":86.325,"RA_OF_ASC_NODE":287.8087,"ARG_OF_PERICENTER":283.255,"MEAN_ANOMALY":199.3546,"EPHEMERIS_TYPE":0,"CLASSIFICATION_TYPE":"U","NORAD_CAT_ID":34896,"ELEMENT_SET_NO":999,"REV_AT_EPOCH":88889,"BSTAR":0.00085086349,"MEAN_MOTION_DOT":4.839e-5,"MEAN_MOTION_DDOT":0}]
